[{"OBJECT_NAME":"STARLINK-30885","OBJECT_ID":"2023-177L","EPOCH":"2026-03-09T22:00:01.999584","MEAN_MOTION":15.26744575,"ECCENTRICITY":0.00016446,"INCLINATION":43.001,"RA_OF_ASC_NODE":349.04,"ARG_OF_PERICENTER":256.6754,"MEAN_ANOMALY":169.4773,"EPHEMERIS_TYPE":0,"CLASSIFICATION_TYPE":"U","NORAD_CAT_ID":58361,"ELEMENT_SET_NO":999,"REV_AT_EPOCH":578,"BSTAR":-0.00042271503,"MEAN_MOTION_DOT":-0.00011583,"MEAN_MOTION_DDOT":0},{"OBJECT_NAME":"COSMOS 1975","OBJECT_ID":"1988-093A","EPOCH":"2026-03-09T14:15:08.474112","MEAN_MOTION":15.28069249,"ECCENTRICITY":0.0012117,"INCLINATION":82.5181,"RA_OF_ASC_NODE":117.7814,"ARG_OF_PERICENTER":163.8427,"MEAN_ANOMALY":196.3201,"EPHEMERIS_TYPE":0,"CLASSIFICATION_TYPE":"U","NORAD_CAT_ID":19573,"ELEMENT_SET_NO":999,"REV_AT_EPOCH":1939,"BSTAR":0.0002787,"MEAN_MOTION_DOT":7.676e-5,"MEAN_MOTION_DDOT":0}]
